[{"OBJECT_NAME":"STARLINK-5866","OBJECT_ID":"2023-094R","EPOCH":"2026-03-09T22:00:01.999584","MEAN_MOTION":15.13650488,"ECCENTRICITY":0.00017672,"INCLINATION":43.0008,"RA_OF_ASC_NODE":28.3845,"ARG_OF_PERICENTER":256.8275,"MEAN_ANOMALY":60.3723,"EPHEMERIS_TYPE":0,"CLASSIFICATION_TYPE":"U","NORAD_CAT_ID":57233,"ELEMENT_SET_NO":999,"REV_AT_EPOCH":577,"BSTAR":0.0044796567,"MEAN_MOTION_DOT":0.00082702,"MEAN_MOTION_DDOT":0},{"OBJECT_NAME":"OBJECT B","OBJECT_ID":"2026-027B","EPOCH":"2026-03-09T21:35:20.668992","MEAN_MOTION":15.17815947,"ECCENTRICITY":0.00102981,"INCLINATION":97.4898,"RA_OF_ASC_NODE":197.9122,"ARG_OF_PERICENTER":196.2876,"MEAN_ANOMALY":163.8028,"EPHEMERIS_TYPE":0,"CLASSIFICATION_TYPE":"U","NORAD_CAT_ID":67747,"ELEMENT_SET_NO":999,"REV_AT_EPOCH":389,"BSTAR":0.00052180304,"MEAN_MOTION_DOT":0.00010507,"MEAN_MOTION_DDOT":0}]
